$$SOE
2460728.500000000, A.D. 2025-Feb-22 00:00:00.0000, -2.440810197919894E+08, -2.011336552143613E+08, -2.580280831802331E+07,
2460735.500000000, A.D. 2025-Mar-01 00:00:00.0000, -2.354643331752384E+08, -2.107788193450041E+08, -2.661077125912358E+07,
2460742.500000000, A.D. 2025-Mar-08 00:00:00.0000, -2.264893494181297E+08, -2.201033022381112E+08, -2.737824155007964E+07,
2460749.500000000, A.D. 2025-Mar-15 00:00:00.0000, -2.171692738153311E+08, -2.290924806056740E+08, -2.810399774360527E+07,
2460756.500000000, A.D. 2025-Mar-22 00:00:00.0000, -2.075180223709520E+08, -2.377323595886078E+08, -2.878689786338238E+07,
2460763.500000000, A.D. 2025-Mar-29 00:00:00.0000, -1.975501847496260E+08, -2.460096167415247E+08, -2.942588299290250E+07,
2460770.500000000, A.D. 2025-Apr-05 00:00:00.0000, -1.872809823991141E+08, -2.539116422728640E+08, -3.001998058801584E+07,
2460777.500000000, A.D. 2025-Apr-12 00:00:00.0000, -1.767262240474322E+08, -2.614265751597947E+08, -3.056830730634770E+07,
2460784.500000000, A.D. 2025-Apr-19 00:00:00.0000, -1.659022590669812E+08, -2.685433357701753E+08, -3.107007138983597E+07,
2460791.500000000, A.D. 2025-Apr-26 00:00:00.0000, -1.548259287626667E+08, -2.752516549764875E+08, -3.152457462646195E+07,
2460798.500000000, A.D. 2025-May-03 00:00:00.0000, -1.435145158169636E+08, -2.815420995592231E+08, -3.193121388783865E+07,
2460805.500000000, A.D. 2025-May-10 00:00:00.0000, -1.319856922220192E+08, -2.874060937460968E+08, -3.228948223586330E+07,
2460812.500000000, A.D. 2025-May-17 00:00:00.0000, -1.202574660273300E+08, -2.928359368271608E+08, -3.259896960144767E+07,
2460819.500000000, A.D. 2025-May-24 00:00:00.0000, -1.083481271008726E+08, -2.978248168483973E+08, -3.285936305890752E+07,
2460826.500000000, A.D. 2025-May-31 00:00:00.0000, -9.627619186542699E+07, -3.023668200663133E+08, -3.307044671805529E+07,
2460833.500000000, A.D. 2025-Jun-07 00:00:00.0000, -8.406034779142675E+07, -3.064569349875524E+08, -3.323210111061446E+07,
2460840.500000000, A.D. 2025-Jun-14 00:00:00.0000, -7.171940037893583E+07, -3.100910517189010E+08, -3.334430192145225E+07,
2460847.500000000, A.D. 2025-Jun-21 00:00:00.0000, -5.927222175860073E+07, -3.132659599924091E+08, -3.340711845908706E+07,
2460854.500000000, A.D. 2025-Jun-28 00:00:00.0000, -4.673769810930763E+07, -3.159793442350786E+08, -3.342071202824962E+07,
2460861.500000000, A.D. 2025-Jul-05 00:00:00.0000, -3.413467771560518E+07, -3.182297736957090E+08, -3.338533391332813E+07,
2460868.500000000, A.D. 2025-Jul-12 00:00:00.0000, -2.148192114004560E+07, -3.200166886305628E+08, -3.330132295638326E+07,
2460875.500000000, A.D. 2025-Jul-19 00:00:00.0000, -8.798053580339599E+06, -3.213403833415487E+08, -3.316910282298180E+07,
2460882.500000000, A.D. 2025-Jul-26 00:00:00.0000, 3.898480566876827E+06, -3.222019863587983E+08, -3.298917900919485E+07,
2460889.500000000, A.D. 2025-Aug-02 00:00:00.0000, 1.658946080111253E+07, -3.226034379939509E+08, -3.276213562371166E+07,
2460896.500000000, A.D. 2025-Aug-09 00:00:00.0000, 2.925693112924896E+07, -3.225474655389216E+08, -3.248863197866204E+07,
2460903.500000000, A.D. 2025-Aug-16 00:00:00.0000, 4.188323813553805E+07, -3.220375564445111E+08, -3.216939903194626E+07,
2460910.500000000, A.D. 2025-Aug-23 00:00:00.0000, 5.445106669800011E+07, -3.210779297388378E+08, -3.180523573665071E+07,
2460917.500000000, A.D. 2025-Aug-30 00:00:00.0000, 6.694347360446818E+07, -3.196735052474115E+08, -3.139700529853430E+07,
2460924.500000000, A.D. 2025-Sep-06 00:00:00.0000, 7.934391760332912E+07, -3.178298698857919E+08, -3.094563115787610E+07,
2460931.500000000, A.D. 2025-Sep-13 00:00:00.0000, 9.163628419936378E+07, -3.155532437704067E+08, -3.045209277227627E+07,
2460938.500000000, A.D. 2025-Sep-20 00:00:00.0000, 1.038049084767455E+08, -3.128504480468696E+08, -2.991742166099821E+07,
2460945.500000000, A.D. 2025-Sep-27 00:00:00.0000, 1.158345970405888E+08, -3.097288715729185E+08, -2.934269757853234E+07,
2460952.500000000, A.D. 2025-Oct-04 00:00:00.0000, 1.277106471129240E+08, -3.061964361535751E+08, -2.872904461136712E+07,
2460959.500000000, A.D. 2025-Oct-11 00:00:00.0000, 1.394188624803864E+08, -3.022615614925135E+08, -2.807762726178072E+07,
2460966.500000000, A.D. 2025-Oct-18 00:00:00.0000, 1.509455666649250E+08, -2.979331303390755E+08, -2.738964658621565E+07,
2460973.500000000, A.D. 2025-Oct-25 00:00:00.0000, 1.622776135584975E+08, -2.932204540085911E+08, -2.666633641731471E+07,
2460980.500000000, A.D. 2025-Nov-01 00:00:00.0000, 1.734023956734566E+08, -2.881332384313226E+08, -2.590895968715839E+07,
2460987.500000000, A.D. 2025-Nov-08 00:00:00.0000, 1.843078501650118E+08, -2.826815509129808E+08, -2.511880487074593E+07,
2460994.500000000, A.D. 2025-Nov-15 00:00:00.0000, 1.949824629053074E+08, -2.768757877994193E+08, -2.429718257971017E+07,
2461001.500000000, A.D. 2025-Nov-22 00:00:00.0000, 2.054152711509835E+08, -2.707266429460108E+08, -2.344542233515114E+07,
2461008.500000000, A.D. 2025-Nov-29 00:00:00.0000, 2.155958647921762E+08, -2.642450759637899E+08, -2.256486942077181E+07,
2461015.500000000, A.D. 2025-Dec-06 00:00:00.0000, 2.255143840450971E+08, -2.574422804676378E+08, -2.165688162459664E+07,
2461022.500000000, A.D. 2025-Dec-13 00:00:00.0000, 2.351615141602211E+08, -2.503296557657508E+08, -2.072282618887433E+07,
2461029.500000000, A.D. 2025-Dec-20 00:00:00.0000, 2.445284807794472E+08, -2.429187810207821E+08, -1.976407720804667E+07,
2461036.500000000, A.D. 2025-Dec-27 00:00:00.0000, 2.536070450088547E+08, -2.352213893350401E+08, -1.878201316637227E+07,
2461043.500000000, A.D. 2026-Jan-03 00:00:00.0000, 2.623894968843120E+08, -2.272493424078099E+08, -1.777801453216700E+07,
2461050.500000000, A.D. 2026-Jan-10 00:00:00.0000, 2.708686474712200E+08, -2.190146064643263E+08, -1.675346147345410E+07,
2461057.500000000, A.D. 2026-Jan-17 00:00:00.0000, 2.790378199570281E+08, -2.105292295584589E+08, -1.570973172194926E+07,
2461064.500000000, A.D. 2026-Jan-24 00:00:00.0000, 2.868908399333580E+08, -2.018053202282760E+08, -1.464819858771837E+07,
2461071.500000000, A.D. 2026-Jan-31 00:00:00.0000, 2.944220250003859E+08, -1.928550275049333E+08, -1.357022912341695E+07,
2461078.500000000, A.D. 2026-Feb-07 00:00:00.0000, 3.016261738532988E+08, -1.836905223142093E+08, -1.247718244411064E+07,
2461085.500000000, A.D. 2026-Feb-14 00:00:00.0000, 3.084985551954618E+08, -1.743239802547799E+08, -1.137040822280854E+07,
2461092.500000000, A.D. 2026-Feb-21 00:00:00.0000, 3.150348969598783E+08, -1.647675651369465E+08, -1.025124534572548E+07,
2461099.500000000, A.D. 2026-Feb-28 00:00:00.0000, 3.212313748518983E+08, -1.550334120926211E+08, -9.121020528691232E+06,
2461106.500000000, A.D. 2026-Mar-07 00:00:00.0000, 3.270845982440094E+08, -1.451336121760198E+08, -7.981046859942488E+06,
2461113.500000000, A.D. 2026-Mar-14 00:00:00.0000, 3.325915962724797E+08, -1.350802007530639E+08, -6.832622708797835E+06,
2461120.500000000, A.D. 2026-Mar-21 00:00:00.0000, 3.377498059839807E+08, -1.248851467406635E+08, -5.677030920744739E+06,
2461127.500000000, A.D. 2026-Mar-28 00:00:00.0000, 3.425570605826970E+08, -1.145603416239741E+08, -4.515538024233907E+06,
2461134.500000000, A.D. 2026-Apr-04 00:00:00.0000, 3.470115772275778E+08, -1.041175891717584E+08, -3.349393466489434E+06,
2461141.500000000, A.D. 2026-Apr-11 00:00:00.0000, 3.511119447012369E+08, -9.356859616219814E+07, -2.179828926792689E+06,
2461148.500000000, A.D. 2026-Apr-18 00:00:00.0000, 3.548571111527441E+08, -8.292496407732016E+07, -1.008057716432989E+06,
2461155.500000000, A.D. 2026-Apr-25 00:00:00.0000, 3.582463719990262E+08, -7.219818170286912E+07, 1.647257375467718E+05,
2461162.500000000, A.D. 2026-May-02 00:00:00.0000, 3.612793580504972E+08, -6.139961861569773E+07, 1.337346325332642E+06,
2461169.500000000, A.D. 2026-May-09 00:00:00.0000, 3.639560240155768E+08, -5.054051957895875E+07, 2.508648592702260E+06,
2461176.500000000, A.D. 2026-May-16 00:00:00.0000, 3.662766377853584E+08, -3.963199966134240E+07, 3.677496966428895E+06,
2461183.500000000, A.D. 2026-May-23 00:00:00.0000, 3.682417705696049E+08, -2.868503901032579E+07, 4.842775950486992E+06,
2461190.500000000, A.D. 2026-May-30 00:00:00.0000, 3.698522858282539E+08, -1.771047691378368E+07, 6.003390515278709E+06,
2461197.500000000, A.D. 2026-Jun-06 00:00:00.0000, 3.711093267008678E+08, -6.719008384453235E+06, 7.158266446370648E+06,
2461204.500000000, A.D. 2026-Jun-13 00:00:00.0000, 3.720143056088024E+08, 4.278816970362495E+06, 8.306350336615467E+06,
2461211.500000000, A.D. 2026-Jun-20 00:00:00.0000, 3.725688955352755E+08, 1.527259676094160E+07, 9.446609510570515E+06,
2461218.500000000, A.D. 2026-Jun-27 00:00:00.0000, 3.727750212922121E+08, 2.625207800830896E+07, 1.057803201311128E+07,
2461225.500000000, A.D. 2026-Jul-04 00:00:00.0000, 3.726348507791963E+08, 3.720715898002103E+07, 1.169962660256122E+07,
2461232.500000000, A.D. 2026-Jul-11 00:00:00.0000, 3.721507864913974E+08, 4.812789057146767E+07, 1.281042271764122E+07,
2461239.500000000, A.D. 2026-Jul-18 00:00:00.0000, 3.713254573701689E+08, 5.900447729181353E+07, 1.390947041501423E+07,
2461246.500000000, A.D. 2026-Jul-25 00:00:00.0000, 3.701617110202891E+08, 6.982727788931094E+07, 1.499584027845400E+07,
2461253.500000000, A.D. 2026-Aug-01 00:00:00.0000, 3.686626063405674E+08, 8.058680559839393E+07, 1.606862329425291E+07,
2461260.500000000, A.D. 2026-Aug-08 00:00:00.0000, 3.668314067804793E+08, 9.127372800098753E+07, 1.712693067300343E+07,
2461267.500000000, A.D. 2026-Aug-15 00:00:00.0000, 3.646715746324682E+08, 1.018788669778951E+08, 1.816989361870765E+07,
2461274.500000000, A.D. 2026-Aug-22 00:00:00.0000, 3.621867655891101E+08, 1.123931999979179E+08, 1.919666321684015E+07,
2461281.500000000, A.D. 2026-Aug-29 00:00:00.0000, 3.593808212712958E+08, 1.228078614012023E+08, 2.020641054226780E+07,
2461288.500000000, A.D. 2026-Sep-05 00:00:00.0000, 3.562577618606520E+08, 1.331141408320438E+08, 2.119832655984931E+07,
$$EOE